sat12666
1 12666U 81053W   20046.75355043  .00000051  00000-0  38998-4 0  9999
2 12666  82.8748 146.3891 0071468 195.1790 283.3117 13.72471333925566
